METHANESAT              
1 59101U 24043D   25279.10644297  .00005786  00000+0  51886-3 0  9993
2 59101  97.8156  44.7595 0011807 134.0465 226.1730 14.96107127 86630
GOSAT-GW (IBUKI GW)     
1 64694U 25141A   25279.14695541  .00001557  00000+0  28274-3 0  9995
2 64694  98.0311 215.9217 0001444  80.7777 279.3591 14.67564338 14580
GHGSAT-C1               
1 46278U 20061G   25279.15421163  .00024321  00000+0  36622-3 0  9997
2 46278  97.2403 353.8353 0000927 224.4202 135.6978 15.54810168283807
GHGSAT-C12              
1 64529U 25135B   25279.07188009  .00005737  00000+0  28669-3 0  9995
2 64529  97.4571  31.8945 0004770 353.7786   6.3387 15.17837985 16242
GHGSAT-C13              
1 64548U 25135W   25279.06895638  .00005448  00000+0  26585-3 0  9992
2 64548  97.4596  32.0812 0000173  33.4179 326.7067 15.18703561 16255
GHGSAT-C2               
1 47509U 21006DA  25279.07593631  .00008412  00000+0  25931-3 0  9990
2 47509  97.2561 325.7436 0005871  19.2708 340.8756 15.33829553260842
GHGSAT-C3               
1 52737U 22057F   25279.15089428  .00008842  00000+0  30755-3 0  9996
2 52737  97.6277  51.6609 0005547 306.7679  53.3051 15.29948801186638
GHGSAT-C4               
1 52746U 22057Q   25279.16958368  .00009605  00000+0  33388-3 0  9998
2 52746  97.6205  50.7653 0005694 289.2142  70.8482 15.29939047186646
GHGSAT-C5               
1 52744U 22057N   25279.18635164  .00009249  00000+0  32170-3 0  9996
2 52744  97.6364  52.9758 0006540 301.4432  58.6168 15.29929714186645
GHGSAT-C6               
1 56204U 23054AC  25279.22128490  .00014476  00000+0  31491-3 0  9996
2 56204  97.3182 180.8802 0006470 236.3848 123.6784 15.44395783139145
GHGSAT-C7               
1 56209U 23054AH  25279.21306185  .00012342  00000+0  27936-3 0  9998
2 56209  97.3143 180.2774 0006814 230.5695 129.4950 15.43250008139134
GHGSAT-C8               
1 56186U 23054J   25279.19532725  .00015805  00000+0  34357-3 0  9992
2 56186  97.3149 180.3099 0003518 263.0094  97.0754 15.44412352139121
SENTINEL-5P             
1 42969U 17064A   25278.46593735  .00000173  00000+0  10306-3 0  9997
2 42969  98.7660 217.6946 0000950  87.0815 273.0470 14.19555036413422
ENMAP                   
1 52159U 22033C   25279.24320168  .00001040  00000+0  16238-3 0  9990
2 52159  97.9785   0.1343 0001494  78.8245 281.3132 14.74920661189224
PRISMA                  
1 44072U 19015A   25279.22224370  .00001686  00000+0  21039-3 0  9998
2 44072  97.8660 352.6339 0001264 103.1925 256.9430 14.83711608354392
SENTINEL-2A             
1 40697U 15028A   25279.22867325  .00000264  00000+0  11731-3 0  9999
2 40697  98.5695 352.7153 0001166  96.5768 263.5547 14.30819208537419
SENTINEL-2B             
1 42063U 17013A   25279.22148876  .00000264  00000+0  11733-3 0  9999
2 42063  98.5694 352.6441 0001027  91.6742 268.4559 14.30822592448328
SENTINEL-2C             
1 60989U 24157A   25279.18670463  .00000242  00000+0  10910-3 0  9992
2 60989  98.5670 352.6731 0001028  89.3194 270.8107 14.30822000 56669
LANDSAT 8               
1 39084U 13008A   25279.15421797  .00000712  00000+0  16820-3 0  9996
2 39084  98.2151 348.1967 0001292  91.1184 269.0162 14.57102721660905
LANDSAT 9               
1 49260U 21088A   25279.18859448  .00000712  00000+0  16805-3 0  9994
2 49260  98.2172 348.2502 0001382  90.1991 269.9366 14.57096736214016
